{
  "links" : {
    "next" : "https://api.nasa.gov/neo/rest/v1/feed?start_date=2010-07-16&end_date=2010-07-16&detailed=true&api_key=t0TVs3DtDT2H8Oy2Zy8m2eVrNsAVKAexjcZXUckd",
    "prev" : "https://api.nasa.gov/neo/rest/v1/feed?start_date=2010-07-14&end_date=2010-07-14&detailed=true&api_key=t0TVs3DtDT2H8Oy2Zy8m2eVrNsAVKAexjcZXUckd",
    "self" : "https://api.nasa.gov/neo/rest/v1/feed?start_date=2010-07-15&end_date=2010-07-15&detailed=true&api_key=t0TVs3DtDT2H8Oy2Zy8m2eVrNsAVKAexjcZXUckd"
  },
  "element_count" : 3,
  "near_earth_objects" : {
    "2010-07-15" : [ {
      "links" : {
        "self" : "https://api.nasa.gov/neo/rest/v1/neo/3398658?api_key=t0TVs3DtDT2H8Oy2Zy8m2eVrNsAVKAexjcZXUckd"
      },
      "neo_reference_id" : "3398658",
      "name" : "(2008 AD)",
      "nasa_jpl_url" : "http://ssd.jpl.nasa.gov/sbdb.cgi?sstr=3398658",
      "absolute_magnitude_h" : 20.1,
      "estimated_diameter" : {
        "kilometers" : {
          "estimated_diameter_min" : 0.2538370294,
          "estimated_diameter_max" : 0.5675968529
        },
        "meters" : {
          "estimated_diameter_min" : 253.8370293645,
          "estimated_diameter_max" : 567.5968528656
        },
        "miles" : {
          "estimated_diameter_min" : 0.1577269688,
          "estimated_diameter_max" : 0.3526882241
        },
        "feet" : {
          "estimated_diameter_min" : 832.7986794202,
          "estimated_diameter_max" : 1862.1944587557
        }
      },
      "is_potentially_hazardous_asteroid" : false,
      "close_approach_data" : [ {
        "close_approach_date" : "2010-07-15",
        "epoch_date_close_approach" : 1279177200000,
        "relative_velocity" : {
          "kilometers_per_second" : "18.0515530752",
          "kilometers_per_hour" : "64985.591070851",
          "miles_per_hour" : "40379.5190739963"
        },
        "miss_distance" : {
          "astronomical" : "0.1586947019",
          "lunar" : "61.7322387695",
          "kilometers" : "23740390",
          "miles" : "14751594"
        },
        "orbiting_body" : "Earth"
      } ],
      "orbital_data" : {
        "orbit_id" : "15",
        "orbit_determination_date" : "2017-04-06 09:04:48",
        "orbit_uncertainty" : "8",
        "minimum_orbit_intersection" : ".105279",
        "jupiter_tisserand_invariant" : "3.883",
        "epoch_osculation" : "2454476.5",
        "eccentricity" : ".6791748847088167",
        "semi_major_axis" : "1.706709761794651",
        "inclination" : "6.921965968824594",
        "ascending_node_longitude" : "224.0967294733033",
        "orbital_period" : "814.4003199928527",
        "perihelion_distance" : ".547555356096357",
        "perihelion_argument" : "338.0450839367841",
        "aphelion_distance" : "2.865864167492945",
        "perihelion_time" : "2454530.084130112454",
        "mean_anomaly" : "336.3135077836748",
        "mean_motion" : ".4420430483170235",
        "equinox" : "J2000"
      }
    }, {
      "links" : {
        "self" : "https://api.nasa.gov/neo/rest/v1/neo/2215442?api_key=t0TVs3DtDT2H8Oy2Zy8m2eVrNsAVKAexjcZXUckd"
      },
      "neo_reference_id" : "2215442",
      "name" : "215442 (2002 MQ3)",
      "nasa_jpl_url" : "http://ssd.jpl.nasa.gov/sbdb.cgi?sstr=2215442",
      "absolute_magnitude_h" : 18.5,
      "estimated_diameter" : {
        "kilometers" : {
          "estimated_diameter_min" : 0.5303407233,
          "estimated_diameter_max" : 1.1858779086
        },
        "meters" : {
          "estimated_diameter_min" : 530.3407233187,
          "estimated_diameter_max" : 1185.8779085771
        },
        "miles" : {
          "estimated_diameter_min" : 0.3295383456,
          "estimated_diameter_max" : 0.7368701419
        },
        "feet" : {
          "estimated_diameter_min" : 1739.963058693,
          "estimated_diameter_max" : 3890.675677576
        }
      },
      "is_potentially_hazardous_asteroid" : false,
      "close_approach_data" : [ {
        "close_approach_date" : "2010-07-15",
        "epoch_date_close_approach" : 1279177200000,
        "relative_velocity" : {
          "kilometers_per_second" : "20.9360593963",
          "kilometers_per_hour" : "75369.8138268114",
          "miles_per_hour" : "46831.8712636651"
        },
        "miss_distance" : {
          "astronomical" : "0.3413307314",
          "lunar" : "132.7776641846",
          "kilometers" : "51062352",
          "miles" : "31728674"
        },
        "orbiting_body" : "Earth"
      } ],
      "orbital_data" : {
        "orbit_id" : "84",
        "orbit_determination_date" : "2017-07-20 06:21:05",
        "orbit_uncertainty" : "0",
        "minimum_orbit_intersection" : ".134651",
        "jupiter_tisserand_invariant" : "6.345",
        "epoch_osculation" : "2458000.5",
        "eccentricity" : ".2742321551611447",
        "semi_major_axis" : ".9136335757624727",
        "inclination" : "36.28414633490178",
        "ascending_node_longitude" : "109.0770212864657",
        "orbital_period" : "318.974895592967",
        "perihelion_distance" : ".6630858712535468",
        "perihelion_argument" : "346.8725461415661",
        "aphelion_distance" : "1.164181280271399",
        "perihelion_time" : "2458055.409435183113",
        "mean_anomaly" : "298.0283622973726",
        "mean_motion" : "1.128615464645794",
        "equinox" : "J2000"
      }
    }, {
      "links" : {
        "self" : "https://api.nasa.gov/neo/rest/v1/neo/3063058?api_key=t0TVs3DtDT2H8Oy2Zy8m2eVrNsAVKAexjcZXUckd"
      },
      "neo_reference_id" : "3063058",
      "name" : "(2000 WC1)",
      "nasa_jpl_url" : "http://ssd.jpl.nasa.gov/sbdb.cgi?sstr=3063058",
      "absolute_magnitude_h" : 22.2,
      "estimated_diameter" : {
        "kilometers" : {
          "estimated_diameter_min" : 0.096506147,
          "estimated_diameter_max" : 0.2157943048
        },
        "meters" : {
          "estimated_diameter_min" : 96.5061469579,
          "estimated_diameter_max" : 215.7943048444
        },
        "miles" : {
          "estimated_diameter_min" : 0.059966121,
          "estimated_diameter_max" : 0.134088323
        },
        "feet" : {
          "estimated_diameter_min" : 316.6212271853,
          "estimated_diameter_max" : 707.9865871058
        }
      },
      "is_potentially_hazardous_asteroid" : true,
      "close_approach_data" : [ {
        "close_approach_date" : "2010-07-15",
        "epoch_date_close_approach" : 1279177200000,
        "relative_velocity" : {
          "kilometers_per_second" : "13.4518992144",
          "kilometers_per_hour" : "48426.8371719386",
          "miles_per_hour" : "30090.5533527526"
        },
        "miss_distance" : {
          "astronomical" : "0.4250842964",
          "lunar" : "165.3577880859",
          "kilometers" : "63591704",
          "miles" : "39514052"
        },
        "orbiting_body" : "Earth"
      } ],
      "orbital_data" : {
        "orbit_id" : "15",
        "orbit_determination_date" : "2017-04-06 09:16:44",
        "orbit_uncertainty" : "1",
        "minimum_orbit_intersection" : ".00293641",
        "jupiter_tisserand_invariant" : "6.672",
        "epoch_osculation" : "2458000.5",
        "eccentricity" : ".2625987776090017",
        "semi_major_axis" : ".8796745157368077",
        "inclination" : "17.40704470395028",
        "ascending_node_longitude" : "50.82175742925826",
        "orbital_period" : "301.3571102858747",
        "perihelion_distance" : ".6486730632105314",
        "perihelion_argument" : "230.0696063954087",
        "aphelion_distance" : "1.110675968263084",
        "perihelion_time" : "2458099.810614278313",
        "mean_anomaly" : "241.3639369375499",
        "mean_motion" : "1.19459600491422",
        "equinox" : "J2000"
      }
    } ]
  }
}